CSS (TIANHE)            
1 48274U 21035A   24018.21704647  .00030456  00000+0  33649-3 0  9997
2 48274  41.4691 285.4425 0006908 189.0619 171.0096 15.62353823155462
